[{"OBJECT_NAME":"ORBITER SN3","OBJECT_ID":"2023-084AE","EPOCH":"2026-03-09T23:12:21.976128","MEAN_MOTION":15.32943891,"ECCENTRICITY":0.00075889,"INCLINATION":97.61,"RA_OF_ASC_NODE":206.6768,"ARG_OF_PERICENTER":331.7947,"MEAN_ANOMALY":28.2883,"EPHEMERIS_TYPE":0,"CLASSIFICATION_TYPE":"U","NORAD_CAT_ID":56960,"ELEMENT_SET_NO":999,"REV_AT_EPOCH":15228,"BSTAR":0.00032835432,"MEAN_MOTION_DOT":0.00010378,"MEAN_MOTION_DDOT":0},{"OBJECT_NAME":"STARLINK-35121","OBJECT_ID":"2025-216D","EPOCH":"2026-03-09T23:19:18.795648","MEAN_MOTION":15.30211221,"ECCENTRICITY":0.00011956,"INCLINATION":53.1603,"RA_OF_ASC_NODE":331.8053,"ARG_OF_PERICENTER":132.8659,"MEAN_ANOMALY":227.2443,"EPHEMERIS_TYPE":0,"CLASSIFICATION_TYPE":"U","NORAD_CAT_ID":65737,"ELEMENT_SET_NO":999,"REV_AT_EPOCH":2658,"BSTAR":0.0007909455,"MEAN_MOTION_DOT":0.00023147,"MEAN_MOTION_DDOT":0}]
